QIANFAN-41              
1 62242U 24232F   25273.51226911  .00000170  00000+0  24437-3 0  9995
2 62242  88.9997  48.5734 0015065  48.9052 311.3397 13.50973223 89362
QIANFAN-42              
1 62243U 24232G   25273.50369953  .00000898  00000+0  38206-3 0  9995
2 62243  88.9996  45.7074 0013626 331.0077  29.0357 14.24367532 90949
QIANFAN-43              
1 62244U 24232H   25273.50819998  .00000161  00000+0  23015-3 0  9990
2 62244  89.0001  48.6359 0016698  53.2706 306.9976 13.50974409 57976
QIANFAN-44              
1 62245U 24232J   25273.56986711  .00000192  00000+0  27809-3 0  9994
2 62245  89.0000  48.4415 0014856  50.9611 309.2859 13.50976018 89452
QIANFAN-45              
1 62246U 24232K   25273.46291333  .00000154  00000+0  21974-3 0  9998
2 62246  89.0003  48.5964 0015493  50.7266 309.5256 13.50972427 89362
QIANFAN-46              
1 62247U 24232L   25273.56164493  .00000198  00000+0  28857-3 0  9991
2 62247  88.9999  48.6583 0015693  55.4569 304.8061 13.50973319 89333
QIANFAN-47              
1 62248U 24232M   25273.56579551  .00000165  00000+0  23670-3 0  9999
2 62248  88.9993  48.5938 0016098  54.5210 305.7441 13.50974805 89360
QIANFAN-48              
1 62249U 24232N   25273.52878380  .00000214  00000+0  31246-3 0  9991
2 62249  89.0000  48.5966 0018398  56.4487 303.8418 13.50970824 89365
